ORBCOMM FM20            
1 25416U 98046D   23253.72056022  .00001095  00000+0  43547-3 0  9994
2 25416  44.9967 350.5603 0002100 220.7605 139.3085 14.34367219311549
ORBCOMM FM13            
1 25420U 98046H   23253.78913675  .00001274  00000+0  49844-3 0  9996
2 25420  45.0003 354.1331 0005526 264.3020  95.7197 14.34381202311609
ORBCOMM FM16 [-]        
1 25417U 98046E   23253.53864904  .00001465  00000+0  55849-3 0  9999
2 25417  44.9969 348.7061 0004736 271.1925  88.8379 14.35024978311391
ORBCOMM FM15 [-]        
1 25418U 98046F   23253.73081930  .00001384  00000+0  53292-3 0  9992
2 25418  45.0001 351.3263 0004140 272.0619  87.9754 14.34792103311606
ORBCOMM FM14 [-]        
1 25419U 98046G   23253.73922167  .00001528  00000+0  58205-3 0  9998
2 25419  44.9989 350.6611 0003516 254.1025 267.4628 14.34891087311614
ORBCOMM FM21 [-]        
1 25475U 98053A   23253.59848364  .00001180  00000+0  46505-3 0  9992
2 25475  45.0091  79.1106 0000523 176.0044 184.0807 14.34402514304463
ORBCOMM FM22 [-]        
1 25476U 98053B   23253.23102153  .00001290  00000+0  50065-3 0  9991
2 25476  45.0087  78.9378 0002107 208.9949 151.0781 14.34745826304399
ORBCOMM FM23 [-]        
1 25477U 98053C   23253.55792791  .00001227  00000+0  48205-3 0  9993
2 25477  45.0093  81.7367 0001412 204.9165 155.1614 14.34377288304608
